[{"OBJECT_NAME":"ASTROCAST-0404","OBJECT_ID":"2023-001DH","EPOCH":"2026-03-09T19:24:02.920896","MEAN_MOTION":15.26309833,"ECCENTRICITY":0.00068478,"INCLINATION":97.5646,"RA_OF_ASC_NODE":161.5422,"ARG_OF_PERICENTER":1.1317,"MEAN_ANOMALY":358.9936,"EPHEMERIS_TYPE":0,"CLASSIFICATION_TYPE":"U","NORAD_CAT_ID":55112,"ELEMENT_SET_NO":999,"REV_AT_EPOCH":12936,"BSTAR":0.00034435555,"MEAN_MOTION_DOT":8.87e-5,"MEAN_MOTION_DDOT":0},{"OBJECT_NAME":"STARLINK-30243","OBJECT_ID":"2023-122S","EPOCH":"2026-03-09T22:00:01.999584","MEAN_MOTION":15.26710307,"ECCENTRICITY":0.00017112,"INCLINATION":43.0057,"RA_OF_ASC_NODE":91.3153,"ARG_OF_PERICENTER":274.5466,"MEAN_ANOMALY":332.2487,"EPHEMERIS_TYPE":0,"CLASSIFICATION_TYPE":"U","NORAD_CAT_ID":57648,"ELEMENT_SET_NO":999,"REV_AT_EPOCH":578,"BSTAR":0.0013693891,"MEAN_MOTION_DOT":0.00036622,"MEAN_MOTION_DDOT":0}]
